CCSDS_OMM_VERS = 2.0
CREATION_DATE  = 
ORIGINATOR     = 

OBJECT_NAME    = CONNECTA IOT-13
OBJECT_ID      = 2026-004AP
CENTER_NAME    = EARTH
REF_FRAME      = TEME
TIME_SYSTEM    = UTC
MEAN_ELEMENT_THEORY = SGP/SGP4

EPOCH          = 2026-01-27T05:38:17.494944
MEAN_MOTION    = 15.18297347
ECCENTRICITY   = .00108392
INCLINATION    = 97.4546
RA_OF_ASC_NODE = 28.3791
ARG_OF_PERICENTER = 113.2913
MEAN_ANOMALY   = 246.9463

EPHEMERIS_TYPE = 0
CLASSIFICATION_TYPE = U
NORAD_CAT_ID   = 67400
ELEMENT_SET_NO = 999
REV_AT_EPOCH   = 237
BSTAR          = .69233433E-3
MEAN_MOTION_DOT = .14167E-3
MEAN_MOTION_DDOT = 0

CCSDS_OMM_VERS = 2.0
CREATION_DATE  = 
ORIGINATOR     = 

OBJECT_NAME    = CONNECTA IOT-14
OBJECT_ID      = 2026-004AQ
CENTER_NAME    = EARTH
REF_FRAME      = TEME
TIME_SYSTEM    = UTC
MEAN_ELEMENT_THEORY = SGP/SGP4

EPOCH          = 2026-01-27T07:11:38.776704
MEAN_MOTION    = 15.18401687
ECCENTRICITY   = .001154
INCLINATION    = 97.4486
RA_OF_ASC_NODE = 28.4333
ARG_OF_PERICENTER = 108.6499
MEAN_ANOMALY   = 251.5990

EPHEMERIS_TYPE = 0
CLASSIFICATION_TYPE = U
NORAD_CAT_ID   = 67401
ELEMENT_SET_NO = 999
REV_AT_EPOCH   = 238
BSTAR          = .80809971E-3
MEAN_MOTION_DOT = .16606E-3
MEAN_MOTION_DDOT = 0

CCSDS_OMM_VERS = 2.0
CREATION_DATE  = 
ORIGINATOR     = 

OBJECT_NAME    = CONNECTA IOT-15
OBJECT_ID      = 2026-004AR
CENTER_NAME    = EARTH
REF_FRAME      = TEME
TIME_SYSTEM    = UTC
MEAN_ELEMENT_THEORY = SGP/SGP4

EPOCH          = 2026-01-27T06:00:03.663360
MEAN_MOTION    = 15.16828554
ECCENTRICITY   = .0004951
INCLINATION    = 97.4549
RA_OF_ASC_NODE = 28.3604
ARG_OF_PERICENTER = 91.8763
MEAN_ANOMALY   = 268.3037

EPHEMERIS_TYPE = 0
CLASSIFICATION_TYPE = U
NORAD_CAT_ID   = 67402
ELEMENT_SET_NO = 999
REV_AT_EPOCH   = 236
BSTAR          = .10794151E-2
MEAN_MOTION_DOT = .21209E-3
MEAN_MOTION_DDOT = 0

CCSDS_OMM_VERS = 2.0
CREATION_DATE  = 
ORIGINATOR     = 

OBJECT_NAME    = SHIJIAN-29B (SJ-29B)
OBJECT_ID      = 2025-315C
CENTER_NAME    = EARTH
REF_FRAME      = TEME
TIME_SYSTEM    = UTC
MEAN_ELEMENT_THEORY = SGP/SGP4

EPOCH          = 2026-01-27T02:01:43.143168
MEAN_MOTION    = 1.00273558
ECCENTRICITY   = .000115
INCLINATION    = 3.0394
RA_OF_ASC_NODE = 98.8251
ARG_OF_PERICENTER = 315.6220
MEAN_ANOMALY   = 175.4386

EPHEMERIS_TYPE = 0
CLASSIFICATION_TYPE = U
NORAD_CAT_ID   = 67403
ELEMENT_SET_NO = 999
REV_AT_EPOCH   = 27
BSTAR          = 0
MEAN_MOTION_DOT = -.59E-6
MEAN_MOTION_DDOT = 0

CCSDS_OMM_VERS = 2.0
CREATION_DATE  = 
ORIGINATOR     = 

OBJECT_NAME    = STARLINK-36484
OBJECT_ID      = 2026-005A
CENTER_NAME    = EARTH
REF_FRAME      = TEME
TIME_SYSTEM    = UTC
MEAN_ELEMENT_THEORY = SGP/SGP4

EPOCH          = 2026-01-27T06:00:00.999648
MEAN_MOTION    = 15.73863353
ECCENTRICITY   = .00010879
INCLINATION    = 42.9999
RA_OF_ASC_NODE = 117.1974
ARG_OF_PERICENTER = 271.1477
MEAN_ANOMALY   = 289.1519

EPHEMERIS_TYPE = 0
CLASSIFICATION_TYPE = U
NORAD_CAT_ID   = 67404
ELEMENT_SET_NO = 999
REV_AT_EPOCH   = 347
BSTAR          = -.15122133E-1
MEAN_MOTION_DOT = -.1915509E-1
MEAN_MOTION_DDOT = 0

CCSDS_OMM_VERS = 2.0
CREATION_DATE  = 
ORIGINATOR     = 

OBJECT_NAME    = STARLINK-36452
OBJECT_ID      = 2026-005B
CENTER_NAME    = EARTH
REF_FRAME      = TEME
TIME_SYSTEM    = UTC
MEAN_ELEMENT_THEORY = SGP/SGP4

EPOCH          = 2026-01-27T06:00:00.999648
MEAN_MOTION    = 15.73870643
ECCENTRICITY   = .00008275
INCLINATION    = 43.0001
RA_OF_ASC_NODE = 117.1927
ARG_OF_PERICENTER = 273.3018
MEAN_ANOMALY   = 288.9101

EPHEMERIS_TYPE = 0
CLASSIFICATION_TYPE = U
NORAD_CAT_ID   = 67405
ELEMENT_SET_NO = 999
REV_AT_EPOCH   = 347
BSTAR          = -.15181393E-1
MEAN_MOTION_DOT = -.1962107E-1
MEAN_MOTION_DDOT = 0

CCSDS_OMM_VERS = 2.0
CREATION_DATE  = 
ORIGINATOR     = 

OBJECT_NAME    = STARLINK-36409
OBJECT_ID      = 2026-005C
CENTER_NAME    = EARTH
REF_FRAME      = TEME
TIME_SYSTEM    = UTC
MEAN_ELEMENT_THEORY = SGP/SGP4

EPOCH          = 2026-01-27T06:00:00.999648
MEAN_MOTION    = 15.73867200
ECCENTRICITY   = .00011608
INCLINATION    = 43.0000
RA_OF_ASC_NODE = 117.1878
ARG_OF_PERICENTER = 271.5984
MEAN_ANOMALY   = 292.5309

EPHEMERIS_TYPE = 0
CLASSIFICATION_TYPE = U
NORAD_CAT_ID   = 67406
ELEMENT_SET_NO = 999
REV_AT_EPOCH   = 352
BSTAR          = -.15137339E-1
MEAN_MOTION_DOT = -.1917514E-1
MEAN_MOTION_DDOT = 0

CCSDS_OMM_VERS = 2.0
CREATION_DATE  = 
ORIGINATOR     = 

OBJECT_NAME    = STARLINK-36510
OBJECT_ID      = 2026-005D
CENTER_NAME    = EARTH
REF_FRAME      = TEME
TIME_SYSTEM    = UTC
MEAN_ELEMENT_THEORY = SGP/SGP4

EPOCH          = 2026-01-27T06:00:00.999648
MEAN_MOTION    = 15.73870533
ECCENTRICITY   = .00014857
INCLINATION    = 43.0000
RA_OF_ASC_NODE = 117.1830
ARG_OF_PERICENTER = 267.5237
MEAN_ANOMALY   = 298.5197

EPHEMERIS_TYPE = 0
CLASSIFICATION_TYPE = U
NORAD_CAT_ID   = 67407
ELEMENT_SET_NO = 999
REV_AT_EPOCH   = 352
BSTAR          = -.15165057E-1
MEAN_MOTION_DOT = -.1921079E-1
MEAN_MOTION_DDOT = 0

CCSDS_OMM_VERS = 2.0
CREATION_DATE  = 
ORIGINATOR     = 

OBJECT_NAME    = STARLINK-36509
OBJECT_ID      = 2026-005E
CENTER_NAME    = EARTH
REF_FRAME      = TEME
TIME_SYSTEM    = UTC
MEAN_ELEMENT_THEORY = SGP/SGP4

EPOCH          = 2026-01-27T06:00:00.999648
MEAN_MOTION    = 15.73863341
ECCENTRICITY   = .00011301
INCLINATION    = 42.9999
RA_OF_ASC_NODE = 117.1778
ARG_OF_PERICENTER = 253.9030
MEAN_ANOMALY   = 314.0663

EPHEMERIS_TYPE = 0
CLASSIFICATION_TYPE = U
NORAD_CAT_ID   = 67408
ELEMENT_SET_NO = 999
REV_AT_EPOCH   = 352
BSTAR          = -.15121707E-1
MEAN_MOTION_DOT = -.1915499E-1
MEAN_MOTION_DDOT = 0

CCSDS_OMM_VERS = 2.0
CREATION_DATE  = 
ORIGINATOR     = 

OBJECT_NAME    = STARLINK-36507
OBJECT_ID      = 2026-005F
CENTER_NAME    = EARTH
REF_FRAME      = TEME
TIME_SYSTEM    = UTC
MEAN_ELEMENT_THEORY = SGP/SGP4

EPOCH          = 2026-01-27T06:00:00.999648
MEAN_MOTION    = 15.73870839
ECCENTRICITY   = .00008767
INCLINATION    = 43.0000
RA_OF_ASC_NODE = 117.1729
ARG_OF_PERICENTER = 275.8181
MEAN_ANOMALY   = 294.0614

EPHEMERIS_TYPE = 0
CLASSIFICATION_TYPE = U
NORAD_CAT_ID   = 67409
ELEMENT_SET_NO = 999
REV_AT_EPOCH   = 352
BSTAR          = -.15176618E-1
MEAN_MOTION_DOT = -.1961613E-1
MEAN_MOTION_DDOT = 0

CCSDS_OMM_VERS = 2.0
CREATION_DATE  = 
ORIGINATOR     = 

OBJECT_NAME    = STARLINK-36508
OBJECT_ID      = 2026-005G
CENTER_NAME    = EARTH
REF_FRAME      = TEME
TIME_SYSTEM    = UTC
MEAN_ELEMENT_THEORY = SGP/SGP4

EPOCH          = 2026-01-27T06:00:00.999648
MEAN_MOTION    = 15.73871603
ECCENTRICITY   = .00008204
INCLINATION    = 43.0000
RA_OF_ASC_NODE = 117.1683
ARG_OF_PERICENTER = 272.8932
MEAN_ANOMALY   = 298.9019

EPHEMERIS_TYPE = 0
CLASSIFICATION_TYPE = U
NORAD_CAT_ID   = 67410
ELEMENT_SET_NO = 999
REV_AT_EPOCH   = 352
BSTAR          = -.15170887E-1
MEAN_MOTION_DOT = -.1960974E-1
MEAN_MOTION_DDOT = 0

CCSDS_OMM_VERS = 2.0
CREATION_DATE  = 
ORIGINATOR     = 

OBJECT_NAME    = STARLINK-36503
OBJECT_ID      = 2026-005H
CENTER_NAME    = EARTH
REF_FRAME      = TEME
TIME_SYSTEM    = UTC
MEAN_ELEMENT_THEORY = SGP/SGP4

EPOCH          = 2026-01-27T06:00:00.999648
MEAN_MOTION    = 15.73876778
ECCENTRICITY   = .00008515
INCLINATION    = 43.0000
RA_OF_ASC_NODE = 117.1632
ARG_OF_PERICENTER = 274.4740
MEAN_ANOMALY   = 299.2377

EPHEMERIS_TYPE = 0
CLASSIFICATION_TYPE = U
NORAD_CAT_ID   = 67411
ELEMENT_SET_NO = 999
REV_AT_EPOCH   = 326
BSTAR          = -.15250015E-1
MEAN_MOTION_DOT = -.1970432E-1
MEAN_MOTION_DDOT = 0

CCSDS_OMM_VERS = 2.0
CREATION_DATE  = 
ORIGINATOR     = 

OBJECT_NAME    = STARLINK-36446
OBJECT_ID      = 2026-005J
CENTER_NAME    = EARTH
REF_FRAME      = TEME
TIME_SYSTEM    = UTC
MEAN_ELEMENT_THEORY = SGP/SGP4

EPOCH          = 2026-01-27T06:00:00.999648
MEAN_MOTION    = 15.73866741
ECCENTRICITY   = .00013375
INCLINATION    = 43.0001
RA_OF_ASC_NODE = 117.1587
ARG_OF_PERICENTER = 257.7896
MEAN_ANOMALY   = 317.8443

EPHEMERIS_TYPE = 0
CLASSIFICATION_TYPE = U
NORAD_CAT_ID   = 67412
ELEMENT_SET_NO = 999
REV_AT_EPOCH   = 352
BSTAR          = -.15134295E-1
MEAN_MOTION_DOT = -.1917306E-1
MEAN_MOTION_DDOT = 0

CCSDS_OMM_VERS = 2.0
CREATION_DATE  = 
ORIGINATOR     = 

OBJECT_NAME    = STARLINK-36442
OBJECT_ID      = 2026-005K
CENTER_NAME    = EARTH
REF_FRAME      = TEME
TIME_SYSTEM    = UTC
MEAN_ELEMENT_THEORY = SGP/SGP4

EPOCH          = 2026-01-27T06:00:00.999648
MEAN_MOTION    = 15.73860948
ECCENTRICITY   = .0000951
INCLINATION    = 42.9997
RA_OF_ASC_NODE = 117.1533
ARG_OF_PERICENTER = 266.0412
MEAN_ANOMALY   = 311.5143

EPHEMERIS_TYPE = 0
CLASSIFICATION_TYPE = U
NORAD_CAT_ID   = 67413
ELEMENT_SET_NO = 999
REV_AT_EPOCH   = 352
BSTAR          = -.15086584E-1
MEAN_MOTION_DOT = -.191133E-1
MEAN_MOTION_DDOT = 0

CCSDS_OMM_VERS = 2.0
CREATION_DATE  = 
ORIGINATOR     = 

OBJECT_NAME    = STARLINK-36506
OBJECT_ID      = 2026-005L
CENTER_NAME    = EARTH
REF_FRAME      = TEME
TIME_SYSTEM    = UTC
MEAN_ELEMENT_THEORY = SGP/SGP4

EPOCH          = 2026-01-27T06:00:00.999648
MEAN_MOTION    = 15.73863147
ECCENTRICITY   = .00009204
INCLINATION    = 42.9999
RA_OF_ASC_NODE = 117.1486
ARG_OF_PERICENTER = 281.2107
MEAN_ANOMALY   = 298.2602

EPHEMERIS_TYPE = 0
CLASSIFICATION_TYPE = U
NORAD_CAT_ID   = 67414
ELEMENT_SET_NO = 999
REV_AT_EPOCH   = 352
BSTAR          = -.15125023E-1
MEAN_MOTION_DOT = -.1915664E-1
MEAN_MOTION_DDOT = 0

